{
  "type": "FeatureCollection",
  "features": [
    {
      "type": "Feature",
      "properties": {
        "norad_id": 58647,
        "name": "TIANMU-1 13",
        "group": "weather",
        "lat": 23.548115377928454,
        "lon": -3.173667192839161,
        "alt_km": 491.8880399611371,
        "timestamp": "2025-12-06T07:31:39.888165+00:00",
        "meta_object_name": "TIANMU-1 13",
        "meta_object_id": "2023-205C",
        "meta_epoch": "2025-12-05T07:47:34.080000",
        "meta_mean_motion": 15.24383862,
        "meta_eccentricity": 0.00062504,
        "meta_inclination": 97.3621,
        "meta_ra_of_asc_node": 359.085,
        "meta_arg_of_pericenter": 301.0558,
        "meta_mean_anomaly": 59.0065,
        "meta_ephemeris_type": 0,
        "meta_classification_type": "U",
        "meta_norad_cat_id": 58647,
        "meta_element_set_no": 999,
        "meta_rev_at_epoch": 10794,
        "meta_bstar": 0.00046116149,
        "meta_mean_motion_dot": 0.0001124,
        "meta_mean_motion_ddot": 0,
        "tle_line1": "1 58647U 23205C   25339.32470000  .00011240  00000+0  46116-3 0  9998",
        "tle_line2": "2 58647  97.3621 359.0850 0006250 301.0558  59.0065 15.24383862107943"
      },
      "geometry": {
        "type": "Point",
        "coordinates": [
          -3.173667192839161,
          23.548115377928454
        ]
      }
    },
    {
      "type": "Feature",
      "properties": {
        "norad_id": 58648,
        "name": "TIANMU-1 14",
        "group": "weather",
        "lat": 63.747116237755506,
        "lon": -165.40577892655747,
        "alt_km": 491.30110187223,
        "timestamp": "2025-12-06T07:31:39.888175+00:00",
        "meta_object_name": "TIANMU-1 14",
        "meta_object_id": "2023-205D",
        "meta_epoch": "2025-12-05T07:23:32.803584",
        "meta_mean_motion": 15.24367443,
        "meta_eccentricity": 0.00071293,
        "meta_inclination": 97.3552,
        "meta_ra_of_asc_node": 358.4242,
        "meta_arg_of_pericenter": 305.4997,
        "meta_mean_anomaly": 54.5575,
        "meta_ephemeris_type": 0,
        "meta_classification_type": "U",
        "meta_norad_cat_id": 58648,
        "meta_element_set_no": 999,
        "meta_rev_at_epoch": 10794,
        "meta_bstar": 0.00044641641,
        "meta_mean_motion_dot": 0.00010874,
        "meta_mean_motion_ddot": 0,
        "tle_line1": "1 58648U 23205D   25339.30801856  .00010874  00000+0  44642-3 0  9998",
        "tle_line2": "2 58648  97.3552 358.4242 0007129 305.4997  54.5575 15.24367443107949"
      },
      "geometry": {
        "type": "Point",
        "coordinates": [
          -165.40577892655747,
          63.747116237755506
        ]
      }
    },
    {
      "type": "Feature",
      "properties": {
        "norad_id": 58660,
        "name": "TIANMU-1 19",
        "group": "weather",
        "lat": -65.40062561547859,
        "lon": 107.94902709803542,
        "alt_km": 487.25691750090573,
        "timestamp": "2025-12-06T07:31:39.888185+00:00",
        "meta_object_name": "TIANMU-1 19",
        "meta_object_id": "2023-208A",
        "meta_epoch": "2025-12-05T06:39:56.003328",
        "meta_mean_motion": 15.27641762,
        "meta_eccentricity": 0.00040917,
        "meta_inclination": 97.4397,
        "meta_ra_of_asc_node": 90.3313,
        "meta_arg_of_pericenter": 286.5497,
        "meta_mean_anomaly": 73.5293,
        "meta_ephemeris_type": 0,
        "meta_classification_type": "U",
        "meta_norad_cat_id": 58660,
        "meta_element_set_no": 999,
        "meta_rev_at_epoch": 10768,
        "meta_bstar": 0.00060163739,
        "meta_mean_motion_dot": 0.00016204,
        "meta_mean_motion_ddot": 0,
        "tle_line1": "1 58660U 23208A   25339.27773152  .00016204  00000+0  60164-3 0  9998",
        "tle_line2": "2 58660  97.4397  90.3313 0004091 286.5497  73.5293 15.27641762107682"
      },
      "geometry": {
        "type": "Point",
        "coordinates": [
          107.94902709803542,
          -65.40062561547859
        ]
      }
    },
    {
      "type": "Feature",
      "properties": {
        "norad_id": 58661,
        "name": "TIANMU-1 20",
        "group": "weather",
        "lat": -19.608429507064816,
        "lon": 94.47204432550579,
        "alt_km": 481.43589847466865,
        "timestamp": "2025-12-06T07:31:39.888198+00:00",
        "meta_object_name": "TIANMU-1 20",
        "meta_object_id": "2023-208B",
        "meta_epoch": "2025-12-05T06:28:51.401568",
        "meta_mean_motion": 15.2883346,
        "meta_eccentricity": 0.00064188,
        "meta_inclination": 97.4334,
        "meta_ra_of_asc_node": 90.7639,
        "meta_arg_of_pericenter": 297.1626,
        "meta_mean_anomaly": 62.8959,
        "meta_ephemeris_type": 0,
        "meta_classification_type": "U",
        "meta_norad_cat_id": 58661,
        "meta_element_set_no": 999,
        "meta_rev_at_epoch": 10775,
        "meta_bstar": 0.00058685356,
        "meta_mean_motion_dot": 0.00016395,
        "meta_mean_motion_ddot": 0,
        "tle_line1": "1 58661U 23208B   25339.27003937  .00016395  00000+0  58685-3 0  9992",
        "tle_line2": "2 58661  97.4334  90.7639 0006418 297.1626  62.8959 15.28833460107753"
      },
      "geometry": {
        "type": "Point",
        "coordinates": [
          94.47204432550579,
          -19.608429507064816
        ]
      }
    },
    {
      "type": "Feature",
      "properties": {
        "norad_id": 58662,
        "name": "TIANMU-1 21",
        "group": "weather",
        "lat": -71.1879112301454,
        "lon": 116.23708474758607,
        "alt_km": 475.0293920954855,
        "timestamp": "2025-12-06T07:31:39.888208+00:00",
        "meta_object_name": "TIANMU-1 21",
        "meta_object_id": "2023-208C",
        "meta_epoch": "2025-12-05T06:45:07.147008",
        "meta_mean_motion": 15.31309151,
        "meta_eccentricity": 0.00059385,
        "meta_inclination": 97.4382,
        "meta_ra_of_asc_node": 92.6504,
        "meta_arg_of_pericenter": 291.513,
        "meta_mean_anomaly": 68.5477,
        "meta_ephemeris_type": 0,
        "meta_classification_type": "U",
        "meta_norad_cat_id": 58662,
        "meta_element_set_no": 999,
        "meta_rev_at_epoch": 10785,
        "meta_bstar": 0.00063241604,
        "meta_mean_motion_dot": 0.00019082,
        "meta_mean_motion_ddot": 0,
        "tle_line1": "1 58662U 23208C   25339.28133272  .00019082  00000+0  63242-3 0  9991",
        "tle_line2": "2 58662  97.4382  92.6504 0005938 291.5130  68.5477 15.31309151107851"
      },
      "geometry": {
        "type": "Point",
        "coordinates": [
          116.23708474758607,
          -71.1879112301454
        ]
      }
    },
    {
      "type": "Feature",
      "properties": {
        "norad_id": 58663,
        "name": "TIANMU-1 22",
        "group": "weather",
        "lat": -58.97069240118294,
        "lon": 103.97183761285909,
        "alt_km": 488.67589457141,
        "timestamp": "2025-12-06T07:31:39.888218+00:00",
        "meta_object_name": "TIANMU-1 22",
        "meta_object_id": "2023-208D",
        "meta_epoch": "2025-12-05T06:37:56.984736",
        "meta_mean_motion": 15.27410933,
        "meta_eccentricity": 0.00029869,
        "meta_inclination": 97.4391,
        "meta_ra_of_asc_node": 90.3923,
        "meta_arg_of_pericenter": 322.7197,
        "meta_mean_anomaly": 37.3834,
        "meta_ephemeris_type": 0,
        "meta_classification_type": "U",
        "meta_norad_cat_id": 58663,
        "meta_element_set_no": 999,
        "meta_rev_at_epoch": 10769,
        "meta_bstar": 0.00056944108,
        "meta_mean_motion_dot": 0.00015222,
        "meta_mean_motion_ddot": 0,
        "tle_line1": "1 58663U 23208D   25339.27635399  .00015222  00000+0  56944-3 0  9991",
        "tle_line2": "2 58663  97.4391  90.3923 0002986 322.7197  37.3834 15.27410933107691"
      },
      "geometry": {
        "type": "Point",
        "coordinates": [
          103.97183761285909,
          -58.97069240118294
        ]
      }
    },
    {
      "type": "Feature",
      "properties": {
        "norad_id": 58700,
        "name": "TIANMU-1 15",
        "group": "weather",
        "lat": 42.624808303603615,
        "lon": -11.26512137584815,
        "alt_km": 492.51964051239884,
        "timestamp": "2025-12-06T07:31:39.888228+00:00",
        "meta_object_name": "TIANMU-1 15",
        "meta_object_id": "2024-004A",
        "meta_epoch": "2025-12-05T07:18:02.195712",
        "meta_mean_motion": 15.24528541,
        "meta_eccentricity": 0.00056312,
        "meta_inclination": 97.4624,
        "meta_ra_of_asc_node": 160.8007,
        "meta_arg_of_pericenter": 328.9866,
        "meta_mean_anomaly": 31.1038,
        "meta_ephemeris_type": 0,
        "meta_classification_type": "U",
        "meta_norad_cat_id": 58700,
        "meta_element_set_no": 999,
        "meta_rev_at_epoch": 10621,
        "meta_bstar": 0.00048082775,
        "meta_mean_motion_dot": 0.00011771,
        "meta_mean_motion_ddot": 0,
        "tle_line1": "1 58700U 24004A   25339.30419208  .00011771  00000+0  48083-3 0  9991",
        "tle_line2": "2 58700  97.4624 160.8007 0005631 328.9866  31.1038 15.24528541106216"
      },
      "geometry": {
        "type": "Point",
        "coordinates": [
          -11.26512137584815,
          42.624808303603615
        ]
      }
    }
  ]
}